[{"OBJECT_NAME":"ONEWEB-0720","OBJECT_ID":"2023-029AR","EPOCH":"2025-10-23T15:37:21.957312","MEAN_MOTION":13.19724746,"ECCENTRICITY":0.0002054,"INCLINATION":87.9244,"RA_OF_ASC_NODE":352.049,"ARG_OF_PERICENTER":109.7751,"MEAN_ANOMALY":250.3604,"EPHEMERIS_TYPE":0,"CLASSIFICATION_TYPE":"U","NORAD_CAT_ID":55835,"ELEMENT_SET_NO":999,"REV_AT_EPOCH":12764,"BSTAR":0.00014072,"MEAN_MOTION_DOT":6.9e-7,"MEAN_MOTION_DDOT":0},{"OBJECT_NAME":"ONEWEB-0537","OBJECT_ID":"2023-043A","EPOCH":"2025-10-23T11:08:14.970624","MEAN_MOTION":13.16594559,"ECCENTRICITY":0.0002036,"INCLINATION":87.8988,"RA_OF_ASC_NODE":275.9238,"ARG_OF_PERICENTER":81.6438,"MEAN_ANOMALY":278.4923,"EPHEMERIS_TYPE":0,"CLASSIFICATION_TYPE":"U","NORAD_CAT_ID":56046,"ELEMENT_SET_NO":999,"REV_AT_EPOCH":12781,"BSTAR":0.00025724,"MEAN_MOTION_DOT":1.11e-6,"MEAN_MOTION_DDOT":0},{"OBJECT_NAME":"ONEWEB-0538","OBJECT_ID":"2023-043B","EPOCH":"2025-10-23T10:59:08.698848","MEAN_MOTION":13.16594799,"ECCENTRICITY":0.0002175,"INCLINATION":87.898,"RA_OF_ASC_NODE":275.9331,"ARG_OF_PERICENTER":88.2457,"MEAN_ANOMALY":271.8923,"EPHEMERIS_TYPE":0,"CLASSIFICATION_TYPE":"U","NORAD_CAT_ID":56047,"ELEMENT_SET_NO":999,"REV_AT_EPOCH":12782,"BSTAR":0.00030352,"MEAN_MOTION_DOT":1.29e-6,"MEAN_MOTION_DDOT":0},{"OBJECT_NAME":"ONEWEB-0546","OBJECT_ID":"2023-043C","EPOCH":"2025-10-23T10:40:54.086880","MEAN_MOTION":13.16595397,"ECCENTRICITY":0.0002223,"INCLINATION":87.8993,"RA_OF_ASC_NODE":275.9216,"ARG_OF_PERICENTER":68.7237,"MEAN_ANOMALY":291.4131,"EPHEMERIS_TYPE":0,"CLASSIFICATION_TYPE":"U","NORAD_CAT_ID":56048,"ELEMENT_SET_NO":999,"REV_AT_EPOCH":12781,"BSTAR":-9.1705e-5,"MEAN_MOTION_DOT":-2.2e-7,"MEAN_MOTION_DDOT":0},{"OBJECT_NAME":"ONEWEB-0547","OBJECT_ID":"2023-043D","EPOCH":"2025-10-23T11:17:33.734112","MEAN_MOTION":13.21850973,"ECCENTRICITY":0.0001983,"INCLINATION":87.9169,"RA_OF_ASC_NODE":291.2016,"ARG_OF_PERICENTER":93.4001,"MEAN_ANOMALY":266.736,"EPHEMERIS_TYPE":0,"CLASSIFICATION_TYPE":"U","NORAD_CAT_ID":56049,"ELEMENT_SET_NO":999,"REV_AT_EPOCH":12695,"BSTAR":-0.0099295,"MEAN_MOTION_DOT":-4.088e-5,"MEAN_MOTION_DDOT":0},{"OBJECT_NAME":"ONEWEB-0548","OBJECT_ID":"2023-043E","EPOCH":"2025-10-23T11:17:22.844256","MEAN_MOTION":13.16594484,"ECCENTRICITY":0.0001399,"INCLINATION":87.8975,"RA_OF_ASC_NODE":275.9316,"ARG_OF_PERICENTER":86.4559,"MEAN_ANOMALY":273.6732,"EPHEMERIS_TYPE":0,"CLASSIFICATION_TYPE":"U","NORAD_CAT_ID":56050,"ELEMENT_SET_NO":999,"REV_AT_EPOCH":12781,"BSTAR":0.00034203,"MEAN_MOTION_DOT":1.44e-6,"MEAN_MOTION_DDOT":0},{"OBJECT_NAME":"ONEWEB-0549","OBJECT_ID":"2023-043F","EPOCH":"2025-10-23T11:06:50.436000","MEAN_MOTION":13.21805626,"ECCENTRICITY":0.0002107,"INCLINATION":87.9166,"RA_OF_ASC_NODE":291.2186,"ARG_OF_PERICENTER":95.367,"MEAN_ANOMALY":264.7704,"EPHEMERIS_TYPE":0,"CLASSIFICATION_TYPE":"U","NORAD_CAT_ID":56051,"ELEMENT_SET_NO":999,"REV_AT_EPOCH":12695,"BSTAR":0.0090495,"MEAN_MOTION_DOT":3.751e-5,"MEAN_MOTION_DDOT":0},{"OBJECT_NAME":"ONEWEB-0550","OBJECT_ID":"2023-043G","EPOCH":"2025-10-23T10:47:56.142240","MEAN_MOTION":13.21821812,"ECCENTRICITY":0.0001724,"INCLINATION":87.9167,"RA_OF_ASC_NODE":291.2159,"ARG_OF_PERICENTER":87.3747,"MEAN_ANOMALY":272.7584,"EPHEMERIS_TYPE":0,"CLASSIFICATION_TYPE":"U","NORAD_CAT_ID":56052,"ELEMENT_SET_NO":999,"REV_AT_EPOCH":12695,"BSTAR":0.0015839,"MEAN_MOTION_DOT":6.67e-6,"MEAN_MOTION_DDOT":0},{"OBJECT_NAME":"ONEWEB-0551","OBJECT_ID":"2023-043H","EPOCH":"2025-10-23T11:09:21.955680","MEAN_MOTION":13.15549041,"ECCENTRICITY":0.0001965,"INCLINATION":87.8963,"RA_OF_ASC_NODE":306.4769,"ARG_OF_PERICENTER":98.8669,"MEAN_ANOMALY":261.2684,"EPHEMERIS_TYPE":0,"CLASSIFICATION_TYPE":"U","NORAD_CAT_ID":56053,"ELEMENT_SET_NO":999,"REV_AT_EPOCH":12527,"BSTAR":0.0003103,"MEAN_MOTION_DOT":1.3e-6,"MEAN_MOTION_DDOT":0},{"OBJECT_NAME":"ONEWEB-0552","OBJECT_ID":"2023-043J","EPOCH":"2025-10-23T10:40:49.060128","MEAN_MOTION":13.21748638,"ECCENTRICITY":0.0001953,"INCLINATION":87.9167,"RA_OF_ASC_NODE":291.226,"ARG_OF_PERICENTER":97.7231,"MEAN_ANOMALY":262.4124,"EPHEMERIS_TYPE":0,"CLASSIFICATION_TYPE":"U","NORAD_CAT_ID":56054,"ELEMENT_SET_NO":999,"REV_AT_EPOCH":12695,"BSTAR":0.012791,"MEAN_MOTION_DOT":5.293e-5,"MEAN_MOTION_DDOT":0},{"OBJECT_NAME":"ONEWEB-0553","OBJECT_ID":"2023-043K","EPOCH":"2025-10-23T10:50:01.558752","MEAN_MOTION":13.16595056,"ECCENTRICITY":0.0001906,"INCLINATION":87.8981,"RA_OF_ASC_NODE":275.9326,"ARG_OF_PERICENTER":74.6282,"MEAN_ANOMALY":285.5059,"EPHEMERIS_TYPE":0,"CLASSIFICATION_TYPE":"U","NORAD_CAT_ID":56055,"ELEMENT_SET_NO":999,"REV_AT_EPOCH":12782,"BSTAR":-5.1754e-5,"MEAN_MOTION_DOT":-7.0e-8,"MEAN_MOTION_DDOT":0},{"OBJECT_NAME":"ONEWEB-0554","OBJECT_ID":"2023-043L","EPOCH":"2025-10-23T10:31:44.829120","MEAN_MOTION":13.16597179,"ECCENTRICITY":0.0001642,"INCLINATION":87.8969,"RA_OF_ASC_NODE":275.9555,"ARG_OF_PERICENTER":84.047,"MEAN_ANOMALY":276.0848,"EPHEMERIS_TYPE":0,"CLASSIFICATION_TYPE":"U","NORAD_CAT_ID":56056,"ELEMENT_SET_NO":999,"REV_AT_EPOCH":12780,"BSTAR":-0.0030493,"MEAN_MOTION_DOT":-1.153e-5,"MEAN_MOTION_DDOT":0},{"OBJECT_NAME":"ONEWEB-0555","OBJECT_ID":"2023-043M","EPOCH":"2025-10-23T11:26:29.630112","MEAN_MOTION":13.16595332,"ECCENTRICITY":0.0002023,"INCLINATION":87.898,"RA_OF_ASC_NODE":275.9223,"ARG_OF_PERICENTER":70.6608,"MEAN_ANOMALY":289.4741,"EPHEMERIS_TYPE":0,"CLASSIFICATION_TYPE":"U","NORAD_CAT_ID":56057,"ELEMENT_SET_NO":999,"REV_AT_EPOCH":12781,"BSTAR":0.00011791,"MEAN_MOTION_DOT":5.8e-7,"MEAN_MOTION_DDOT":0},{"OBJECT_NAME":"ONEWEB-0557","OBJECT_ID":"2023-043N","EPOCH":"2025-10-23T09:57:33.607584","MEAN_MOTION":13.16596089,"ECCENTRICITY":0.0001228,"INCLINATION":87.8975,"RA_OF_ASC_NODE":275.9489,"ARG_OF_PERICENTER":42.23,"MEAN_ANOMALY":317.8926,"EPHEMERIS_TYPE":0,"CLASSIFICATION_TYPE":"U","NORAD_CAT_ID":56058,"ELEMENT_SET_NO":999,"REV_AT_EPOCH":12780,"BSTAR":0.00018367,"MEAN_MOTION_DOT":8.3e-7,"MEAN_MOTION_DDOT":0},{"OBJECT_NAME":"ONEWEB-0558","OBJECT_ID":"2023-043P","EPOCH":"2025-10-23T10:31:21.023328","MEAN_MOTION":13.21764436,"ECCENTRICITY":0.0002222,"INCLINATION":87.9165,"RA_OF_ASC_NODE":291.2218,"ARG_OF_PERICENTER":97.5464,"MEAN_ANOMALY":262.5923,"EPHEMERIS_TYPE":0,"CLASSIFICATION_TYPE":"U","NORAD_CAT_ID":56059,"ELEMENT_SET_NO":999,"REV_AT_EPOCH":12696,"BSTAR":0.011173,"MEAN_MOTION_DOT":4.626e-5,"MEAN_MOTION_DDOT":0},{"OBJECT_NAME":"ONEWEB-0559","OBJECT_ID":"2023-043Q","EPOCH":"2025-10-23T12:03:46.628064","MEAN_MOTION":13.21792422,"ECCENTRICITY":0.0001958,"INCLINATION":87.9167,"RA_OF_ASC_NODE":291.2015,"ARG_OF_PERICENTER":98.3533,"MEAN_ANOMALY":261.7823,"EPHEMERIS_TYPE":0,"CLASSIFICATION_TYPE":"U","NORAD_CAT_ID":56060,"ELEMENT_SET_NO":999,"REV_AT_EPOCH":12698,"BSTAR":0.0080078,"MEAN_MOTION_DOT":3.32e-5,"MEAN_MOTION_DDOT":0},{"OBJECT_NAME":"ONEWEB-0566","OBJECT_ID":"2023-043R","EPOCH":"2025-10-23T10:05:17.160864","MEAN_MOTION":13.21808219,"ECCENTRICITY":0.0002021,"INCLINATION":87.9161,"RA_OF_ASC_NODE":291.2152,"ARG_OF_PERICENTER":98.4768,"MEAN_ANOMALY":261.6595,"EPHEMERIS_TYPE":0,"CLASSIFICATION_TYPE":"U","NORAD_CAT_ID":56061,"ELEMENT_SET_NO":999,"REV_AT_EPOCH":12695,"BSTAR":0.007032,"MEAN_MOTION_DOT":2.917e-5,"MEAN_MOTION_DDOT":0}]
