ONEWEB-0720             
1 55835U 23029AR  25296.65094858  .00000069  00000+0  14072-3 0  9992
2 55835  87.9244 352.0490 0002054 109.7751 250.3604 13.19724746127640
ONEWEB-0537             
1 56046U 23043A   25296.46406216  .00000111  00000+0  25724-3 0  9991
2 56046  87.8988 275.9238 0002036  81.6438 278.4923 13.16594559127810
ONEWEB-0538             
1 56047U 23043B   25296.45773957  .00000129  00000+0  30352-3 0  9992
2 56047  87.8980 275.9331 0002175  88.2457 271.8923 13.16594799127829
ONEWEB-0546             
1 56048U 23043C   25296.44507045 -.00000022  00000+0 -91705-4 0  9999
2 56048  87.8993 275.9216 0002223  68.7237 291.4131 13.16595397127812
ONEWEB-0547             
1 56049U 23043D   25296.47052933 -.00004088  00000+0 -99295-2 0  9990
2 56049  87.9169 291.2016 0001983  93.4001 266.7360 13.21850973126957
ONEWEB-0548             
1 56050U 23043E   25296.47040329  .00000144  00000+0  34203-3 0  9994
2 56050  87.8975 275.9316 0001399  86.4559 273.6732 13.16594484127818
ONEWEB-0549             
1 56051U 23043F   25296.46308375  .00003751  00000+0  90495-2 0  9993
2 56051  87.9166 291.2186 0002107  95.3670 264.7704 13.21805626126952
ONEWEB-0550             
1 56052U 23043G   25296.44995535  .00000667  00000+0  15839-2 0  9994
2 56052  87.9167 291.2159 0001724  87.3747 272.7584 13.21821812126954
ONEWEB-0551             
1 56053U 23043H   25296.46483745  .00000130  00000+0  31030-3 0  9999
2 56053  87.8963 306.4769 0001965  98.8669 261.2684 13.15549041125273
ONEWEB-0552             
1 56054U 23043J   25296.44501227  .00005293  00000+0  12791-1 0  9990
2 56054  87.9167 291.2260 0001953  97.7231 262.4124 13.21748638126956
ONEWEB-0553             
1 56055U 23043K   25296.45140693 -.00000007  00000+0 -51754-4 0  9993
2 56055  87.8981 275.9326 0001906  74.6282 285.5059 13.16595056127828
ONEWEB-0554             
1 56056U 23043L   25296.43871330 -.00001153  00000+0 -30493-2 0  9999
2 56056  87.8969 275.9555 0001642  84.0470 276.0848 13.16597179127807
ONEWEB-0555             
1 56057U 23043M   25296.47673183  .00000058  00000+0  11791-3 0  9992
2 56057  87.8980 275.9223 0002023  70.6608 289.4741 13.16595332127811
ONEWEB-0557             
1 56058U 23043N   25296.41497231  .00000083  00000+0  18367-3 0  9999
2 56058  87.8975 275.9489 0001228  42.2300 317.8926 13.16596089127800
ONEWEB-0558             
1 56059U 23043P   25296.43843777  .00004626  00000+0  11173-1 0  9995
2 56059  87.9165 291.2218 0002222  97.5464 262.5923 13.21764436126961
ONEWEB-0559             
1 56060U 23043Q   25296.50262301  .00003320  00000+0  80078-2 0  9994
2 56060  87.9167 291.2015 0001958  98.3533 261.7823 13.21792422126989
ONEWEB-0566             
1 56061U 23043R   25296.42033751  .00002917  00000+0  70320-2 0  9991
2 56061  87.9161 291.2152 0002021  98.4768 261.6595 13.21808219126953
